{"type": "FeatureCollection", "features": [ {"type": "Feature", "properties": {"norad_id": 41836, "name": "HIMAWARI-9", "group": "weather", "lat": -0.020430160489839106, "lon": -54.93597836973553, "alt_km": 35781.102520472705, "timestamp": "2025-12-08T05:48:08.691529+00:00", "meta": {"OBJECT_NAME": "HIMAWARI-9", "OBJECT_ID": "2016-064A", "EPOCH": "2025-12-07T20:39:38.484576", "MEAN_MOTION": 1.00273365, "ECCENTRICITY": 0.00013287, "INCLINATION": 0.0157, "RA_OF_ASC_NODE": 58.6459, "ARG_OF_PERICENTER": 211.0672, "MEAN_ANOMALY": 257.8442, "EPHEMERIS_TYPE": 0, "CLASSIFICATION_TYPE": "U", "NORAD_CAT_ID": 41836, "ELEMENT_SET_NO": 999, "REV_AT_EPOCH": 3329, "BSTAR": 0, "MEAN_MOTION_DOT": -2.71e-06, "MEAN_MOTION_DDOT": 0}, "tle": {"line1": "1 41836U 16064A   25341.86086209 -.00000271  00000+0  00000+0 0  9992", "line2": "2 41836   0.0157  58.6459 0001328 211.0672 257.8442  1.00273365 33293"}}, "geometry": {"type": "Point", "coordinates": [-54.93597836973553, -0.020430160489839106]}}, {"type": "Feature", "properties": {"norad_id": 41866, "name": "GOES 16", "group": "weather", "lat": -0.018575188566449064, "lon": 59.62891867167267, "alt_km": 35800.07380550095, "timestamp": "2025-12-08T05:48:08.691541+00:00", "meta": {"OBJECT_NAME": "GOES 16", "OBJECT_ID": "2016-071A", "EPOCH": "2025-12-07T19:58:52.048704", "MEAN_MOTION": 1.00271515, "ECCENTRICITY": 0.00035005, "INCLINATION": 0.0664, "RA_OF_ASC_NODE": 104.5463, "ARG_OF_PERICENTER": 155.3383, "MEAN_ANOMALY": 12.0135, "EPHEMERIS_TYPE": 0, "CLASSIFICATION_TYPE": "U", "NORAD_CAT_ID": 41866, "ELEMENT_SET_NO": 999, "REV_AT_EPOCH": 3318, "BSTAR": 0, "MEAN_MOTION_DOT": -8.8e-07, "MEAN_MOTION_DDOT": 0}, "tle": {"line1": "1 41866U 16071A   25341.83254686 -.00000088  00000+0  00000+0 0  9992", "line2": "2 41866   0.0664 104.5463 0003500 155.3383  12.0135  1.00271515 33181"}}, "geometry": {"type": "Point", "coordinates": [59.62891867167267, -0.018575188566449064]}}, {"type": "Feature", "properties": {"norad_id": 41882, "name": "FENGYUN 4A", "group": "weather", "lat": -0.8170236472410435, "lon": -71.84878166838904, "alt_km": 35775.42531876088, "timestamp": "2025-12-08T05:48:08.691552+00:00", "meta": {"OBJECT_NAME": "FENGYUN 4A", "OBJECT_ID": "2016-077A", "EPOCH": "2025-12-07T22:27:28.132128", "MEAN_MOTION": 1.00275782, "ECCENTRICITY": 0.00049743, "INCLINATION": 1.8367, "RA_OF_ASC_NODE": 82.4374, "ARG_OF_PERICENTER": 142.9149, "MEAN_ANOMALY": 312.2873, "EPHEMERIS_TYPE": 0, "CLASSIFICATION_TYPE": "U", "NORAD_CAT_ID": 41882, "ELEMENT_SET_NO": 999, "REV_AT_EPOCH": 3301, "BSTAR": 0, "MEAN_MOTION_DOT": -3.54e-06, "MEAN_MOTION_DDOT": 0}, "tle": {"line1": "1 41882U 16077A   25341.93574227 -.00000354  00000+0  00000+0 0  9999", "line2": "2 41882   1.8367  82.4374 0004974 142.9149 312.2873  1.00275782 33017"}}, "geometry": {"type": "Point", "coordinates": [-71.84878166838904, -0.8170236472410435]}}, {"type": "Feature", "properties": {"norad_id": 41884, "name": "CYGFM05", "group": "weather", "lat": 34.120008407565464, "lon": -179.37356384088156, "alt_km": 413.02949846023876, "timestamp": "2025-12-08T05:48:08.691564+00:00", "meta": {"OBJECT_NAME": "CYGFM05", "OBJECT_ID": "2016-078A", "EPOCH": "2025-12-07T23:10:19.179264", "MEAN_MOTION": 15.47374396, "ECCENTRICITY": 0.00095772, "INCLINATION": 34.9599, "RA_OF_ASC_NODE": 78.3112, "ARG_OF_PERICENTER": 138.5672, "MEAN_ANOMALY": 221.5777, "EPHEMERIS_TYPE": 0, "CLASSIFICATION_TYPE": "U", "NORAD_CAT_ID": 41884, "ELEMENT_SET_NO": 999, "REV_AT_EPOCH": 49902, "BSTAR": 0.00046085442, "MEAN_MOTION_DOT": 0.00024362, "MEAN_MOTION_DDOT": 0}, "tle": {"line1": "1 41884U 16078A   25341.96549976  .00024362  00000+0  46085-3 0  9999", "line2": "2 41884  34.9599  78.3112 0009577 138.5672 221.5777 15.47374396499022"}}, "geometry": {"type": "Point", "coordinates": [-179.37356384088156, 34.120008407565464]}}, {"type": "Feature", "properties": {"norad_id": 41885, "name": "CYGFM04", "group": "weather", "lat": -30.63041277621618, "lon": -6.610970199999443, "alt_km": 421.9136446190287, "timestamp": "2025-12-08T05:48:08.691574+00:00", "meta": {"OBJECT_NAME": "CYGFM04", "OBJECT_ID": "2016-078B", "EPOCH": "2025-12-07T14:36:57.569760", "MEAN_MOTION": 15.50045424, "ECCENTRICITY": 0.00088176, "INCLINATION": 34.9352, "RA_OF_ASC_NODE": 55.563, "ARG_OF_PERICENTER": 164.3189, "MEAN_ANOMALY": 195.7807, "EPHEMERIS_TYPE": 0, "CLASSIFICATION_TYPE": "U", "NORAD_CAT_ID": 41885, "ELEMENT_SET_NO": 999, "REV_AT_EPOCH": 49914, "BSTAR": 0.00053768111, "MEAN_MOTION_DOT": 0.00031257, "MEAN_MOTION_DDOT": 0}, "tle": {"line1": "1 41885U 16078B   25341.60899965  .00031257  00000+0  53768-3 0  9994", "line2": "2 41885  34.9352  55.5630 0008817 164.3189 195.7807 15.50045424499148"}}, "geometry": {"type": "Point", "coordinates": [-6.610970199999443, -30.63041277621618]}}, {"type": "Feature", "properties": {"norad_id": 41886, "name": "CYGFM02", "group": "weather", "lat": -33.00346895142149, "lon": -18.664599926587087, "alt_km": 417.9098310101026, "timestamp": "2025-12-08T05:48:08.691585+00:00", "meta": {"OBJECT_NAME": "CYGFM02", "OBJECT_ID": "2016-078C", "EPOCH": "2025-12-07T14:40:07.968576", "MEAN_MOTION": 15.51404281, "ECCENTRICITY": 0.00105591, "INCLINATION": 34.944, "RA_OF_ASC_NODE": 53.9401, "ARG_OF_PERICENTER": 163.4673, "MEAN_ANOMALY": 196.6395, "EPHEMERIS_TYPE": 0, "CLASSIFICATION_TYPE": "U", "NORAD_CAT_ID": 41886, "ELEMENT_SET_NO": 999, "REV_AT_EPOCH": 49927, "BSTAR": 0.00054697823, "MEAN_MOTION_DOT": 0.00033413, "MEAN_MOTION_DDOT": 0}, "tle": {"line1": "1 41886U 16078C   25341.61120334  .00033413  00000+0  54698-3 0  9992", "line2": "2 41886  34.9440  53.9401 0010559 163.4673 196.6395 15.51404281499276"}}, "geometry": {"type": "Point", "coordinates": [-18.664599926587087, -33.00346895142149]}}, {"type": "Feature", "properties": {"norad_id": 41887, "name": "CYGFM01", "group": "weather", "lat": 23.161281834406108, "lon": -138.89616238732097, "alt_km": 411.94167658066453, "timestamp": "2025-12-08T05:48:08.691595+00:00", "meta": {"OBJECT_NAME": "CYGFM01", "OBJECT_ID": "2016-078D", "EPOCH": "2025-12-07T23:01:28.894080", "MEAN_MOTION": 15.47944929, "ECCENTRICITY": 0.00091549, "INCLINATION": 34.9429, "RA_OF_ASC_NODE": 80.7346, "ARG_OF_PERICENTER": 129.9517, "MEAN_ANOMALY": 230.201, "EPHEMERIS_TYPE": 0, "CLASSIFICATION_TYPE": "U", "NORAD_CAT_ID": 41887, "ELEMENT_SET_NO": 999, "REV_AT_EPOCH": 49896, "BSTAR": 0.00045831873, "MEAN_MOTION_DOT": 0.00024714, "MEAN_MOTION_DDOT": 0}, "tle": {"line1": "1 41887U 16078D   25341.95936220  .00024714  00000+0  45832-3 0  9993", "line2": "2 41887  34.9429  80.7346 0009154 129.9517 230.2010 15.47944929498960"}}, "geometry": {"type": "Point", "coordinates": [-138.89616238732097, 23.161281834406108]}}, {"type": "Feature", "properties": {"norad_id": 41888, "name": "CYGFM08", "group": "weather", "lat": 8.204266760460229, "lon": -129.9830970063067, "alt_km": 409.5481208404135, "timestamp": "2025-12-08T05:48:08.691606+00:00", "meta": {"OBJECT_NAME": "CYGFM08", "OBJECT_ID": "2016-078E", "EPOCH": "2025-12-07T15:10:20.402976", "MEAN_MOTION": 15.49121472, "ECCENTRICITY": 0.00109911, "INCLINATION": 34.9461, "RA_OF_ASC_NODE": 65.9239, "ARG_OF_PERICENTER": 152.0024, "MEAN_ANOMALY": 208.1291, "EPHEMERIS_TYPE": 0, "CLASSIFICATION_TYPE": "U", "NORAD_CAT_ID": 41888, "ELEMENT_SET_NO": 999, "REV_AT_EPOCH": 49914, "BSTAR": 0.00056094178, "MEAN_MOTION_DOT": 0.00031588, "MEAN_MOTION_DDOT": 0}, "tle": {"line1": "1 41888U 16078E   25341.63218059  .00031588  00000+0  56094-3 0  9991", "line2": "2 41888  34.9461  65.9239 0010991 152.0024 208.1291 15.49121472499142"}}, "geometry": {"type": "Point", "coordinates": [-129.9830970063067, 8.204266760460229]}}, {"type": "Feature", "properties": {"norad_id": 41890, "name": "CYGFM07", "group": "weather", "lat": 19.77127700329603, "lon": -160.03947330130737, "alt_km": 408.1349521367929, "timestamp": "2025-12-08T05:48:08.691617+00:00", "meta": {"OBJECT_NAME": "CYGFM07", "OBJECT_ID": "2016-078G", "EPOCH": "2025-12-07T21:27:17.966016", "MEAN_MOTION": 15.49708056, "ECCENTRICITY": 0.00093424, "INCLINATION": 34.9481, "RA_OF_ASC_NODE": 53.2183, "ARG_OF_PERICENTER": 172.4, "MEAN_ANOMALY": 187.6865, "EPHEMERIS_TYPE": 0, "CLASSIFICATION_TYPE": "U", "NORAD_CAT_ID": 41890, "ELEMENT_SET_NO": 999, "REV_AT_EPOCH": 49920, "BSTAR": 0.00044905353, "MEAN_MOTION_DOT": 0.00025772, "MEAN_MOTION_DDOT": 0}, "tle": {"line1": "1 41890U 16078G   25341.89395794  .00025772  00000+0  44905-3 0  9990", "line2": "2 41890  34.9481  53.2183 0009342 172.4000 187.6865 15.49708056499207"}}, "geometry": {"type": "Point", "coordinates": [-160.03947330130737, 19.77127700329603]}}, {"type": "Feature", "properties": {"norad_id": 41891, "name": "CYGFM03", "group": "weather", "lat": -11.26384437545863, "lon": 36.280959891889374, "alt_km": 423.9071587935896, "timestamp": "2025-12-08T05:48:08.691627+00:00", "meta": {"OBJECT_NAME": "CYGFM03", "OBJECT_ID": "2016-078H", "EPOCH": "2025-12-07T22:09:27.003744", "MEAN_MOTION": 15.49611239, "ECCENTRICITY": 0.00086566, "INCLINATION": 34.9435, "RA_OF_ASC_NODE": 54.9413, "ARG_OF_PERICENTER": 160.1803, "MEAN_ANOMALY": 199.9256, "EPHEMERIS_TYPE": 0, "CLASSIFICATION_TYPE": "U", "NORAD_CAT_ID": 41891, "ELEMENT_SET_NO": 999, "REV_AT_EPOCH": 49918, "BSTAR": 0.00045455674, "MEAN_MOTION_DOT": 0.00025993, "MEAN_MOTION_DDOT": 0}, "tle": {"line1": "1 41891U 16078H   25341.92322921  .00025993  00000+0  45456-3 0  9994", "line2": "2 41891  34.9435  54.9413 0008656 160.1803 199.9256 15.49611239499186"}}, "geometry": {"type": "Point", "coordinates": [36.280959891889374, -11.26384437545863]}}]}